NORAD_CAT_ID,OBJECT_NAME,OBJECT_TYPE,EPOCH,MEAN_MOTION,ECCENTRICITY,INCLINATION,RA_OF_ASC_NODE,ARG_OF_PERICENTER,MEAN_ANOMALY,BSTAR,MEAN_MOTION_DOT,MEAN_MOTION_DDOT,TLE_LINE0,TLE_LINE1,TLE_LINE2,SEMIMAJOR_AXIS,PERIOD,APOGEE,PERIGEE,DECAYED
51959.0,STARLINK-3704,PAYLOAD,2022-06-15 14:00:01,15.08830372,0.0001841,53.2165,28.343000000000004,51.8993,328.798,0.0020209,0.00032013,0.0,0 STARLINK-3704,1 51959U 22025D   22166.58334491  .00032013  00000-0  20209-2 0  9998,2 51959  53.2165  28.3430 0001841  51.8993 328.7980 15.08830372  1300,6917.91,95.438,541.048,538.501,0.0
51959.0,STARLINK-3704,PAYLOAD,2022-06-15 22:00:00,15.0884187,0.0001973,53.2163,26.8483,46.6684,345.6337,-0.0011913,-0.00019199,0.0,0 STARLINK-3704,1 51959U 22025D   22166.91667824 -.00019199  00000-0 -11913-2 0  9998,2 51959  53.2163  26.8483 0001973  46.6684 345.6337 15.08841870 16556,6917.875,95.437,541.105,538.375,0.0
51959.0,STARLINK-3704,PAYLOAD,2022-06-16 02:00:01,15.08813171,0.0001962,53.216,26.1002,43.7326,174.3742,0.0036013,0.00057452,0.0,0 STARLINK-3704,1 51959U 22025D   22167.08334491  .00057452  00000-0  36013-2 0  9998,2 51959  53.2160  26.1002 0001962  43.7326 174.3742 15.08813171  1309,6917.962,95.439,541.185,538.47,0.0
51959.0,STARLINK-3704,PAYLOAD,2022-06-19 14:00:01,15.08851653,0.0001962,53.2162,10.3855,55.3716,104.416,-0.00093414,-0.00015129,0.0,0 STARLINK-3704,1 51959U 22025D   22170.58334491 -.00015129  00000-0 -93414-3 0  9993,2 51959  53.2162  10.3855 0001962  55.3716 104.4160 15.08851653  1309,6917.845,95.437,541.067,538.352,0.0
51959.0,STARLINK-3704,PAYLOAD,2022-06-19 20:00:01,15.0883646,0.0002077,53.216,9.2647,50.0205,28.4691,-0.00022698,-3.899e-05,0.0,0 STARLINK-3704,1 51959U 22025D   22170.83334491 -.00003899  00000-0 -22698-3 0  9998,2 51959  53.2160   9.2647 0002077  50.0205  28.4691 15.08836460 17148,6917.891,95.438,541.193,538.319,0.0
51959.0,STARLINK-3704,PAYLOAD,2022-06-19 22:00:00,15.08823267,0.0002096,53.2163,8.891,48.5069,122.8836,0.0017885,0.00028278,0.0,0 STARLINK-3704,1 51959U 22025D   22170.91667824  .00028278  00000-0  17885-2 0  9993,2 51959  53.2163   8.8910 0002096  48.5069 122.8836 15.08823267  1302,6917.932,95.439,541.247,538.347,0.0
51959.0,STARLINK-3704,PAYLOAD,2022-06-20 14:00:01,15.08835935,0.0001895,53.2168,5.8965,52.7631,141.8024,0.00075237,0.00011705,0.0,0 STARLINK-3704,1 51959U 22025D   22171.58334491  .00011705  00000-0  75237-3 0  9991,2 51959  53.2168   5.8965 0001895  52.7631 141.8024 15.08835935  1307,6917.893,95.438,541.069,538.447,0.0
51959.0,STARLINK-3704,PAYLOAD,2022-06-20 22:00:00,15.08835454,0.0002039,53.2168,4.4019,46.0334,160.1302,-0.00028916,-4.887e-05,0.0,0 STARLINK-3704,1 51959U 22025D   22171.91667824 -.00004887  00000-0 -28916-3 0  9994,2 51959  53.2168   4.4019 0002039  46.0334 160.1302 15.08835454 17316,6917.894,95.438,541.17,538.349,0.0
51959.0,STARLINK-3704,PAYLOAD,2022-06-21 14:00:01,15.08844475,0.0001825,53.2171,1.4076,50.8904,178.4437,0.00047633,7.302e-05,0.0,0 STARLINK-3704,1 51959U 22025D   22172.58334491  .00007302  00000-0  47633-3 0  9999,2 51959  53.2171   1.4076 0001825  50.8904 178.4437 15.08844475  1304,6917.8669999999975,95.437,540.994,538.469,0.0
51959.0,STARLINK-3704,PAYLOAD,2022-06-21 22:00:00,15.08836792,0.0001973,53.217,359.9128,44.0902,196.8474,-0.00013177,-2.385e-05,0.0,0 STARLINK-3704,1 51959U 22025D   22172.91667824 -.00002385  00000-0 -13177-3 0  9999,2 51959  53.2170 359.9128 0001973  44.0902 196.8474 15.08836792  1307,6917.89,95.438,541.12,538.39,0.0
51959.0,STARLINK-3704,PAYLOAD,2022-06-22 00:00:02,15.08833102,0.0001933,53.2167,359.5386,42.3936,291.5065,0.0001669,2.369e-05,0.0,0 STARLINK-3704,1 51959U 22025D   22173.00002315  .00002369  00000-0  16690-3 0  9991,2 51959  53.2167 359.5386 0001933  42.3936 291.5065 15.08833102 17475,6917.901,95.438,541.104,538.429,0.0
51959.0,STARLINK-3704,PAYLOAD,2022-06-22 14:00:01,15.08846963,0.0001720999999999,53.2171,356.9186,48.9389,215.1707,-4.2895e-06,-3.56e-06,0.0,0 STARLINK-3704,1 51959U 22025D   22173.58334491 -.00000356  00000-0 -42895-5 0  9991,2 51959  53.2171 356.9186 0001721  48.9389 215.1707 15.08846963  1307,6917.859,95.437,540.915,538.534,0.0
51959.0,STARLINK-3704,PAYLOAD,2022-06-22 22:00:00,15.08838014,0.0001865,53.2168,355.4238,41.8113,233.9066,7.7787e-06,-1.64e-06,0.0,0 STARLINK-3704,1 51959U 22025D   22173.91667824 -.00000164  00000-0  77787-5 0  9991,2 51959  53.2168 355.4238 0001865  41.8113 233.9066 15.08838014  1305,6917.886,95.438,541.0419999999998,538.461,0.0
51959.0,STARLINK-3704,PAYLOAD,2022-06-23 06:00:00,15.08826776,0.0001643,53.2167,353.9258,43.6382,243.676,0.00025491,3.77e-05,0.0,0 STARLINK-3704,1 51959U 22025D   22174.25001157  .00003770  00000-0  25491-3 0  9998,2 51959  53.2167 353.9258 0001643  43.6382 243.6760 15.08826776 17668,6917.920999999999,95.438,540.922,538.649,0.0
51959.0,STARLINK-3704,PAYLOAD,2022-06-23 14:00:01,15.08848937,0.0001629999999999,53.2168,352.4296,47.2988,251.5892,-0.00048945,-8.071e-05,0.0,0 STARLINK-3704,1 51959U 22025D   22174.58334491 -.00008071  00000-0 -48945-3 0  9994,2 51959  53.2168 352.4296 0001630  47.2988 251.5892 15.08848937  1304,6917.853,95.437,540.846,538.59,0.0
51959.0,STARLINK-3704,PAYLOAD,2022-06-23 22:00:00,15.08830787,0.0001849,53.2163,350.9347,42.7238,267.7718,0.00024244,3.572e-05,0.0,0 STARLINK-3704,1 51959U 22025D   22174.91667824  .00003572  00000-0  24244-3 0  9995,2 51959  53.2163 350.9347 0001849  42.7238 267.7718 15.08830787  1309,6917.909000000002,95.438,541.053,538.494,0.0
51959.0,STARLINK-3704,PAYLOAD,2022-06-24 06:00:02,15.08816135,0.000172,53.2161,349.4366,48.5889,273.555,0.00072242,0.00011221,0.0,0 STARLINK-3704,1 51959U 22025D   22175.25002315  .00011221  00000-0  72242-3 0  9992,2 51959  53.2161 349.4366 0001720  48.5889 273.5550 15.08816135 17818,6917.953,95.439,541.008,538.628,0.0
51959.0,STARLINK-3704,PAYLOAD,2022-06-24 14:00:01,15.08842093,0.0001733,53.2162,347.9406,51.1507,282.4927,-0.0010649,-0.00017197,0.0,0 STARLINK-3704,1 51959U 22025D   22175.58334491 -.00017197  00000-0 -10649-2 0  9993,2 51959  53.2162 347.9406 0001733  51.1507 282.4927 15.08842093  1304,6917.874,95.437,540.938,538.54,0.0
51959.0,STARLINK-3704,PAYLOAD,2022-06-24 22:00:01,15.08812308,0.0001887,53.2157,346.4455,45.5162,299.7864,0.0029816999999999,0.0004745,0.0,0 STARLINK-3704,1 51959U 22025D   22175.91668981  .00047450  00000-0  29817-2 0  9994,2 51959  53.2157 346.4455 0001887  45.5162 299.7864 15.08812308  1307,6917.965,95.439,541.135,538.525,0.0
51959.0,STARLINK-3704,PAYLOAD,2022-06-25 14:00:01,15.08862848,0.000177,53.2157,343.4515,51.4578,316.9542,-0.0012638,-0.00020358,0.0,0 STARLINK-3704,1 51959U 22025D   22176.58334491 -.00020358  00000-0 -12638-2 0  9997,2 51959  53.2157 343.4515 0001770  51.4578 316.9542 15.08862848  1308,6917.811,95.436,540.9,538.451,0.0
51959.0,STARLINK-3704,PAYLOAD,2022-06-25 16:00:00,15.08860657,0.0001826,53.2155,343.0778,49.4018,51.9149,-0.0014145999999999,-0.00022744,0.0,0 STARLINK-3704,1 51959U 22025D   22176.66667824 -.00022744  00000-0 -14146-2 0  9992,2 51959  53.2155 343.0778 0001826  49.4018  51.9149 15.08860657 18034,6917.816999999999,95.436,540.945,538.419,0.0
51959.0,STARLINK-3704,PAYLOAD,2022-06-25 22:00:00,15.08847204,0.0001874,53.2154,341.9562,44.1585,335.8734,0.00055565,8.568e-05,0.0,0 STARLINK-3704,1 51959U 22025D   22176.91667824  .00008568  00000-0  55565-3 0  9997,2 51959  53.2154 341.9562 0001874  44.1585 335.8734 15.08847204  1304,6917.858,95.437,541.02,538.427,0.0
51959.0,STARLINK-3704,PAYLOAD,2022-06-26 14:00:01,15.08858763,0.0001744,53.2161,338.9604,47.886,355.3921,-0.0011931,-0.00019236,0.0,0 STARLINK-3704,1 51959U 22025D   22177.58335648 -.00019236  00000-0 -11931-2 0  9991,2 51959  53.2161 338.9604 0001744  47.8860 355.3921 15.08858763 18166,6917.823,95.436,540.895,538.482,0.0
51959.0,STARLINK-3704,PAYLOAD,2022-06-26 22:00:00,15.08834333,0.0001818,53.2155,337.4666,40.1701,14.6629,0.0008486,0.00013241,0.0,0 STARLINK-3704,1 51959U 22025D   22177.91667824  .00013241  00000-0  84860-3 0  9992,2 51959  53.2155 337.4666 0001818  40.1701  14.6629 15.08834333  1308,6917.898,95.438,541.02,538.505,0.0
51959.0,STARLINK-3704,PAYLOAD,2022-06-27 14:00:01,15.08862604,0.0001792,53.2159,334.4725,46.6076,31.4016,-0.0042942,-0.00068028,0.0,0 STARLINK-3704,1 51959U 22025D   22178.58334491 -.00068028  00000-0 -42942-2 0  9996,2 51959  53.2159 334.4725 0001792  46.6076  31.4016 15.08862604  1301,6917.811,95.436,540.9159999999998,538.437,0.0
51959.0,STARLINK-3704,PAYLOAD,2022-06-27 22:00:00,15.08806612,0.0001945,53.2158,332.9771,42.2263,47.3832,0.002839,0.00045143,0.0,0 STARLINK-3704,1 51959U 22025D   22178.91667824  .00045143  00000-0  28390-2 0  9994,2 51959  53.2158 332.9771 0001945  42.2263  47.3832 15.08806612 18378,6917.982,95.44,541.193,538.502,0.0
51959.0,STARLINK-3704,PAYLOAD,2022-06-28 14:00:01,15.08853796,0.0001863,53.2165,329.9833,47.3794,65.3725,-0.0026534,-0.00042286,0.0,0 STARLINK-3704,1 51959U 22025D   22179.58334491 -.00042286  00000-0 -26534-2 0  9994,2 51959  53.2165 329.9833 0001863  47.3794  65.3725 15.08853796 18472,6917.8380000000025,95.437,540.992,538.414,0.0
51959.0,STARLINK-3704,PAYLOAD,2022-06-28 22:00:00,15.08812326,0.0001921,53.2163,328.4877,41.0435,83.309,0.00088939,0.00013884,0.0,0 STARLINK-3704,1 51959U 22025D   22179.91667824  .00013884  00000-0  88939-3 0  9998,2 51959  53.2163 328.4877 0001921  41.0435  83.3090 15.08812326  1303,6917.965,95.439,541.159,538.501,0.0
51959.0,STARLINK-3704,PAYLOAD,2022-06-29 06:00:00,15.08795596,0.0001695,53.2167,326.9897,45.8571,90.0695,0.0025763,0.00040902,0.0,0 STARLINK-3704,1 51959U 22025D   22180.25001157  .00040902  00000-0  25763-2 0  9994,2 51959  53.2167 326.9897 0001695  45.8571  90.0695 15.08795596 18575,6918.016,95.44,541.054,538.7090000000002,0.0
